0 FENGYUN 1C DEB
1 30246U 99025XF  13281.88810453  .00000266  00000-0  39578-3 0  7731
2 30246 098.6518 297.6512 0376229 091.1657 026.6166 13.34912279327666
0 FENGYUN 1C DEB
1 30246U 99025XF  13283.00069560  .00000231  00000-0  34939-3 0  7741
2 30246 098.6516 298.5957 0376166 088.3784 333.3761 13.34912790327810
0 FENGYUN 1C DEB
1 30246U 99025XF  13284.05062919  .00000240  00000-0  36067-3 0  7753
2 30246 098.6514 299.4872 0376158 085.7571 339.0179 13.34913083327957
0 FENGYUN 1C DEB
1 30246U 99025XF  13285.99909125  .00000216  00000-0  32862-3 0  7769
2 30246 098.6509 301.1413 0376115 080.8854 342.7089 13.34914134328215
0 FENGYUN 1C DEB
1 30246U 99025XF  13287.58358694  .00000257  00000-0  38420-3 0  7777
2 30246 098.6507 302.4863 0376053 076.9248 037.2975 13.34915035328424
0 FENGYUN 1C DEB
1 30246U 99025XF  13288.63416788  .00000260  00000-0  38798-3 0  7786
2 30246 098.6506 303.3780 0376014 074.2971 046.0642 13.34915817328564
0 FENGYUN 1C DEB
1 30246U 99025XF  13289.97050262  .00000229  00000-0  34645-3 0  7798
2 30246 098.6505 304.5122 0375963 070.9531 348.0804 13.34916753328748
0 FENGYUN 1C DEB
1 30246U 99025XF  13291.32131028  .00000240  00000-0  36122-3 0  7807
2 30246 098.6506 305.6586 0375937 067.5741 359.6534 13.34917386328922
0 FENGYUN 1C DEB
1 30246U 99025XF  13292.53917677  .00000235  00000-0  35551-3 0  7813
2 30246 098.6507 306.6921 0375909 064.5282 092.3522 13.34918188329080
0 FENGYUN 1C DEB
1 30246U 99025XF  13293.57965950  .00000277  00000-0  41120-3 0  7821
2 30246 098.6508 307.5752 0375880 061.9249 052.6041 13.34918490329222
0 FENGYUN 1C DEB
1 30246U 99025XF  13294.62871354  .00000282  00000-0  41756-3 0  7834
2 30246 098.6508 308.4655 0375843 059.2999 054.0473 13.34919253329363
